BEIJING 1               
1 28890U 05043A   23144.54069169  .00000454  00000+0  10024-3 0  9995
2 28890  98.1562 266.4755 0015073 181.3153 178.8011 14.61793747936961
HJ-1A                   
1 33320U 08041A   23144.48169579  .00000815  00000+0  11813-3 0  9997
2 33320  97.6454 165.9985 0020321 197.8675 162.1825 14.78427021792764
HJ-1B                   
1 33321U 08041B   23144.47809795  .00001107  00000+0  15631-3 0  9995
2 33321  97.6577 170.2479 0032672 218.2611 141.6282 14.78709935792764
YAOGAN 4                
1 33446U 08061A   23144.32212645  .00001511  00000+0  21466-3 0  9993
2 33446  97.8511  79.8749 0017316 108.3525 251.9571 14.78248747779936
DEIMOS-1                
1 35681U 09041A   23144.51523434  .00000605  00000+0  10254-3 0  9993
2 35681  97.6861 342.5485 0001551 146.6827 213.4479 14.72515789741954
UK-DMC 2                
1 35683U 09041C   23144.46512039  .00000949  00000+0  15810-3 0  9992
2 35683  97.7314 304.8102 0001109  95.9244 264.2090 14.72113276741661
RISAT 1                 
1 38248U 12017A   23144.02915659  .00006499  00000+0  34220-3 0  9998
2 38248  97.5424 157.2167 0004884 141.9545 218.2033 15.15952527610356
DMC3-FM1                
1 40715U 15032A   23144.55294515  .00000791  00000+0  10432-3 0  9997
2 40715  97.8030  28.8905 0007218 119.6301 240.5632 14.82724118423826
DMC3-FM2                
1 40716U 15032B   23144.50764097  .00000804  00000+0  10593-3 0  9993
2 40716  97.8077  29.6753 0008982 123.5908 236.6164 14.82728498423825
DMC3-FM3                
1 40717U 15032C   23144.53061680  .00000823  00000+0  10838-3 0  9998
2 40717  97.8117  30.7617 0010595 122.4604 237.7636 14.82703235423825
